{"type": "FeatureCollection", "features": [ {"type": "Feature", "properties": {"norad_id": 34738, "name": "COSMOS 2251 DEB", "group": "cosmos-2251-debris", "lat": -15.539414054408908, "lon": 132.6991469062708, "alt_km": 725.6655384200512, "timestamp": "2025-12-15T22:44:29.325335+00:00", "meta": {"OBJECT_NAME": "COSMOS 2251 DEB", "OBJECT_ID": "1993-036ZG", "EPOCH": "2025-12-15T04:49:29.157024", "MEAN_MOTION": 14.4630808, "ECCENTRICITY": 0.00474221, "INCLINATION": 74.0147, "RA_OF_ASC_NODE": 138.6658, "ARG_OF_PERICENTER": 284.4705, "MEAN_ANOMALY": 133.5973, "EPHEMERIS_TYPE": 0, "CLASSIFICATION_TYPE": "U", "NORAD_CAT_ID": 34738, "ELEMENT_SET_NO": 999, "REV_AT_EPOCH": 87894, "BSTAR": 0.00035272669, "MEAN_MOTION_DOT": 1.254e-05, "MEAN_MOTION_DDOT": 0}, "tle": {"line1": "1 34738U 93036ZG  25349.20103191  .00001254  00000+0  35273-3 0  9990", "line2": "2 34738  74.0147 138.6658 0047422 284.4705 133.5973 14.46308080878947"}}, "geometry": {"type": "Point", "coordinates": [132.6991469062708, -15.539414054408908]}}, {"type": "Feature", "properties": {"norad_id": 34750, "name": "COSMOS 2251 DEB", "group": "cosmos-2251-debris", "lat": -43.179722382414205, "lon": -179.8617752527053, "alt_km": 721.7778776539053, "timestamp": "2025-12-15T22:44:29.325345+00:00", "meta": {"OBJECT_NAME": "COSMOS 2251 DEB", "OBJECT_ID": "1993-036ZU", "EPOCH": "2025-12-15T00:37:57.758016", "MEAN_MOTION": 14.613483, "ECCENTRICITY": 0.00387268, "INCLINATION": 74.1079, "RA_OF_ASC_NODE": 197.3978, "ARG_OF_PERICENTER": 149.7271, "MEAN_ANOMALY": 0.6054, "EPHEMERIS_TYPE": 0, "CLASSIFICATION_TYPE": "U", "NORAD_CAT_ID": 34750, "ELEMENT_SET_NO": 999, "REV_AT_EPOCH": 88264, "BSTAR": 0.00069274204, "MEAN_MOTION_DOT": 3.432e-05, "MEAN_MOTION_DDOT": 0}, "tle": {"line1": "1 34750U 93036ZU  25349.02636294  .00003432  00000+0  69274-3 0  9997", "line2": "2 34750  74.1079 197.3978 0038726 149.7271   0.6054 14.61348300882643"}}, "geometry": {"type": "Point", "coordinates": [-179.8617752527053, -43.179722382414205]}}, {"type": "Feature", "properties": {"norad_id": 34752, "name": "COSMOS 2251 DEB", "group": "cosmos-2251-debris", "lat": -1.8198125141632193, "lon": 174.59899088353615, "alt_km": 553.2190751955322, "timestamp": "2025-12-15T22:44:29.325356+00:00", "meta": {"OBJECT_NAME": "COSMOS 2251 DEB", "OBJECT_ID": "1993-036ZW", "EPOCH": "2025-12-15T01:07:44.406336", "MEAN_MOTION": 14.99989551, "ECCENTRICITY": 0.00475918, "INCLINATION": 74.0136, "RA_OF_ASC_NODE": 355.909, "ARG_OF_PERICENTER": 123.7216, "MEAN_ANOMALY": 236.8521, "EPHEMERIS_TYPE": 0, "CLASSIFICATION_TYPE": "U", "NORAD_CAT_ID": 34752, "ELEMENT_SET_NO": 999, "REV_AT_EPOCH": 89884, "BSTAR": 0.0006512796, "MEAN_MOTION_DOT": 8.262e-05, "MEAN_MOTION_DDOT": 0}, "tle": {"line1": "1 34752U 93036ZW  25349.04704174  .00008262  00000+0  65128-3 0  9994", "line2": "2 34752  74.0136 355.9090 0047591 123.7216 236.8521 14.99989551898847"}}, "geometry": {"type": "Point", "coordinates": [174.59899088353615, -1.8198125141632193]}}, {"type": "Feature", "properties": {"norad_id": 34754, "name": "COSMOS 2251 DEB", "group": "cosmos-2251-debris", "lat": -8.389338562143415, "lon": 44.08989168249221, "alt_km": 778.5693234241426, "timestamp": "2025-12-15T22:44:29.325366+00:00", "meta": {"OBJECT_NAME": "COSMOS 2251 DEB", "OBJECT_ID": "1993-036ZY", "EPOCH": "2025-12-15T02:33:44.389728", "MEAN_MOTION": 14.40484897, "ECCENTRICITY": 0.0029662, "INCLINATION": 74.03, "RA_OF_ASC_NODE": 223.2242, "ARG_OF_PERICENTER": 338.889, "MEAN_ANOMALY": 171.4966, "EPHEMERIS_TYPE": 0, "CLASSIFICATION_TYPE": "U", "NORAD_CAT_ID": 34754, "ELEMENT_SET_NO": 999, "REV_AT_EPOCH": 88167, "BSTAR": 0.00021344514, "MEAN_MOTION_DOT": 6.56e-06, "MEAN_MOTION_DDOT": 0}, "tle": {"line1": "1 34754U 93036ZY  25349.10676377  .00000656  00000+0  21345-3 0  9998", "line2": "2 34754  74.0300 223.2242 0029662 338.8890 171.4966 14.40484897881673"}}, "geometry": {"type": "Point", "coordinates": [44.08989168249221, -8.389338562143415]}}, {"type": "Feature", "properties": {"norad_id": 34755, "name": "COSMOS 2251 DEB", "group": "cosmos-2251-debris", "lat": -16.900469860291953, "lon": -80.1560769404482, "alt_km": 831.5832134160837, "timestamp": "2025-12-15T22:44:29.325377+00:00", "meta": {"OBJECT_NAME": "COSMOS 2251 DEB", "OBJECT_ID": "1993-036ZZ", "EPOCH": "2025-12-14T20:18:02.385216", "MEAN_MOTION": 13.50565417, "ECCENTRICITY": 0.04082447, "INCLINATION": 73.9259, "RA_OF_ASC_NODE": 286.6394, "ARG_OF_PERICENTER": 306.0897, "MEAN_ANOMALY": 79.0347, "EPHEMERIS_TYPE": 0, "CLASSIFICATION_TYPE": "U", "NORAD_CAT_ID": 34755, "ELEMENT_SET_NO": 999, "REV_AT_EPOCH": 82552, "BSTAR": 0.0012616054, "MEAN_MOTION_DOT": 1.337e-05, "MEAN_MOTION_DDOT": 0}, "tle": {"line1": "1 34755U 93036ZZ  25348.84586094  .00001337  00000+0  12616-2 0  9992", "line2": "2 34755  73.9259 286.6394 0408244 306.0897  79.0347 13.50565417825523"}}, "geometry": {"type": "Point", "coordinates": [-80.1560769404482, -16.900469860291953]}}, {"type": "Feature", "properties": {"norad_id": 34756, "name": "COSMOS 2251 DEB", "group": "cosmos-2251-debris", "lat": 72.12401548037684, "lon": 161.89506064920334, "alt_km": 1071.763818671081, "timestamp": "2025-12-15T22:44:29.325387+00:00", "meta": {"OBJECT_NAME": "COSMOS 2251 DEB", "OBJECT_ID": "1993-036AAA", "EPOCH": "2025-12-15T06:32:55.960224", "MEAN_MOTION": 13.67249099, "ECCENTRICITY": 0.03452085, "INCLINATION": 74.003, "RA_OF_ASC_NODE": 100.2039, "ARG_OF_PERICENTER": 335.4696, "MEAN_ANOMALY": 23.0321, "EPHEMERIS_TYPE": 0, "CLASSIFICATION_TYPE": "U", "NORAD_CAT_ID": 34756, "ELEMENT_SET_NO": 999, "REV_AT_EPOCH": 83456, "BSTAR": 0.001012609, "MEAN_MOTION_DOT": 1.26e-05, "MEAN_MOTION_DDOT": 0}, "tle": {"line1": "1 34756U 93036AAA 25349.27286991  .00001260  00000+0  10126-2 0  9993", "line2": "2 34756  74.0030 100.2039 0345208 335.4696  23.0321 13.67249099834561"}}, "geometry": {"type": "Point", "coordinates": [161.89506064920334, 72.12401548037684]}}, {"type": "Feature", "properties": {"norad_id": 34758, "name": "COSMOS 2251 DEB", "group": "cosmos-2251-debris", "lat": 73.80693373069171, "lon": 13.159337747410477, "alt_km": 786.5781736602621, "timestamp": "2025-12-15T22:44:29.325397+00:00", "meta": {"OBJECT_NAME": "COSMOS 2251 DEB", "OBJECT_ID": "1993-036AAC", "EPOCH": "2025-12-15T06:25:58.080576", "MEAN_MOTION": 13.58077038, "ECCENTRICITY": 0.03814545, "INCLINATION": 74.1074, "RA_OF_ASC_NODE": 295.428, "ARG_OF_PERICENTER": 58.5507, "MEAN_ANOMALY": 305.2304, "EPHEMERIS_TYPE": 0, "CLASSIFICATION_TYPE": "U", "NORAD_CAT_ID": 34758, "ELEMENT_SET_NO": 999, "REV_AT_EPOCH": 82944, "BSTAR": 0.0015436838, "MEAN_MOTION_DOT": 1.778e-05, "MEAN_MOTION_DDOT": 0}, "tle": {"line1": "1 34758U 93036AAC 25349.26803334  .00001778  00000+0  15437-2 0  9994", "line2": "2 34758  74.1074 295.4280 0381454  58.5507 305.2304 13.58077038829443"}}, "geometry": {"type": "Point", "coordinates": [13.159337747410477, 73.80693373069171]}}, {"type": "Feature", "properties": {"norad_id": 34760, "name": "COSMOS 2251 DEB", "group": "cosmos-2251-debris", "lat": -34.30551134442567, "lon": -74.60639825781548, "alt_km": 768.6165414490979, "timestamp": "2025-12-15T22:44:29.325408+00:00", "meta": {"OBJECT_NAME": "COSMOS 2251 DEB", "OBJECT_ID": "1993-036AAE", "EPOCH": "2025-12-15T02:41:16.305792", "MEAN_MOTION": 14.19577597, "ECCENTRICITY": 0.00969153, "INCLINATION": 74.0638, "RA_OF_ASC_NODE": 298.1257, "ARG_OF_PERICENTER": 349.726, "MEAN_ANOMALY": 26.4744, "EPHEMERIS_TYPE": 0, "CLASSIFICATION_TYPE": "U", "NORAD_CAT_ID": 34760, "ELEMENT_SET_NO": 999, "REV_AT_EPOCH": 86722, "BSTAR": 0.00066484188, "MEAN_MOTION_DOT": 1.445e-05, "MEAN_MOTION_DDOT": 0}, "tle": {"line1": "1 34760U 93036AAE 25349.11199428  .00001445  00000+0  66484-3 0  9993", "line2": "2 34760  74.0638 298.1257 0096915 349.7260  26.4744 14.19577597867222"}}, "geometry": {"type": "Point", "coordinates": [-74.60639825781548, -34.30551134442567]}}, {"type": "Feature", "properties": {"norad_id": 34761, "name": "COSMOS 2251 DEB", "group": "cosmos-2251-debris", "lat": 72.05216790038571, "lon": 114.73886133196096, "alt_km": 747.8595522624682, "timestamp": "2025-12-15T22:44:29.325418+00:00", "meta": {"OBJECT_NAME": "COSMOS 2251 DEB", "OBJECT_ID": "1993-036AAF", "EPOCH": "2025-12-15T07:15:46.111392", "MEAN_MOTION": 14.38058834, "ECCENTRICITY": 0.003652, "INCLINATION": 74.0295, "RA_OF_ASC_NODE": 358.0685, "ARG_OF_PERICENTER": 31.3901, "MEAN_ANOMALY": 328.9422, "EPHEMERIS_TYPE": 0, "CLASSIFICATION_TYPE": "U", "NORAD_CAT_ID": 34761, "ELEMENT_SET_NO": 999, "REV_AT_EPOCH": 87686, "BSTAR": 0.00052699176, "MEAN_MOTION_DOT": 1.582e-05, "MEAN_MOTION_DDOT": 0}, "tle": {"line1": "1 34761U 93036AAF 25349.30261703  .00001582  00000+0  52699-3 0  9996", "line2": "2 34761  74.0295 358.0685 0036520  31.3901 328.9422 14.38058834876867"}}, "geometry": {"type": "Point", "coordinates": [114.73886133196096, 72.05216790038571]}}, {"type": "Feature", "properties": {"norad_id": 34784, "name": "COSMOS 2251 DEB", "group": "cosmos-2251-debris", "lat": -49.055160871833856, "lon": 157.51939707064344, "alt_km": 706.036131924312, "timestamp": "2025-12-15T22:44:29.325428+00:00", "meta": {"OBJECT_NAME": "COSMOS 2251 DEB", "OBJECT_ID": "1993-036AAM", "EPOCH": "2025-12-15T05:15:08.792928", "MEAN_MOTION": 14.60792274, "ECCENTRICITY": 0.00493288, "INCLINATION": 74.0072, "RA_OF_ASC_NODE": 319.6104, "ARG_OF_PERICENTER": 128.2122, "MEAN_ANOMALY": 232.3501, "EPHEMERIS_TYPE": 0, "CLASSIFICATION_TYPE": "U", "NORAD_CAT_ID": 34784, "ELEMENT_SET_NO": 999, "REV_AT_EPOCH": 88571, "BSTAR": 0.00037726383, "MEAN_MOTION_DOT": 1.843e-05, "MEAN_MOTION_DDOT": 0}, "tle": {"line1": "1 34784U 93036AAM 25349.21885177  .00001843  00000+0  37726-3 0  9992", "line2": "2 34784  74.0072 319.6104 0049328 128.2122 232.3501 14.60792274885713"}}, "geometry": {"type": "Point", "coordinates": [157.51939707064344, -49.055160871833856]}}]}